CCSDS_OMM_VERS = 2.0
CREATION_DATE  = 
ORIGINATOR     = 

OBJECT_NAME    = 2025-292J
OBJECT_ID      = 2025-292J
CENTER_NAME    = EARTH
REF_FRAME      = TEME
TIME_SYSTEM    = UTC
MEAN_ELEMENT_THEORY = SGP/SGP4

EPOCH          = 2025-12-25T05:53:32.795808
MEAN_MOTION    = 15.04433141
ECCENTRICITY   = .00150197
INCLINATION    = 97.6531
RA_OF_ASC_NODE = 71.6766
ARG_OF_PERICENTER = 223.3598
MEAN_ANOMALY   = 136.6447

EPHEMERIS_TYPE = 0
CLASSIFICATION_TYPE = U
NORAD_CAT_ID   = 67001
ELEMENT_SET_NO = 999
REV_AT_EPOCH   = 227
BSTAR          = .41603345E-3
MEAN_MOTION_DOT = .5768E-4
MEAN_MOTION_DDOT = 0

CCSDS_OMM_VERS = 2.0
CREATION_DATE  = 
ORIGINATOR     = 

OBJECT_NAME    = ZK-1A R/B
OBJECT_ID      = 2025-292K
CENTER_NAME    = EARTH
REF_FRAME      = TEME
TIME_SYSTEM    = UTC
MEAN_ELEMENT_THEORY = SGP/SGP4

EPOCH          = 2025-12-24T19:25:44.119488
MEAN_MOTION    = 15.58439592
ECCENTRICITY   = .02061963
INCLINATION    = 97.7203
RA_OF_ASC_NODE = 72.5850
ARG_OF_PERICENTER = 321.3647
MEAN_ANOMALY   = 37.3004

EPHEMERIS_TYPE = 0
CLASSIFICATION_TYPE = U
NORAD_CAT_ID   = 67002
ELEMENT_SET_NO = 999
REV_AT_EPOCH   = 227
BSTAR          = .75988202E-3
MEAN_MOTION_DOT = .163758E-2
MEAN_MOTION_DDOT = .9378867E-5

CCSDS_OMM_VERS = 2.0
CREATION_DATE  = 
ORIGINATOR     = 

OBJECT_NAME    = STARLINK-35660
OBJECT_ID      = 2025-293A
CENTER_NAME    = EARTH
REF_FRAME      = TEME
TIME_SYSTEM    = UTC
MEAN_ELEMENT_THEORY = SGP/SGP4

EPOCH          = 2025-12-25T06:00:04.000320
MEAN_MOTION    = 15.77659339
ECCENTRICITY   = .00036425
INCLINATION    = 69.9935
RA_OF_ASC_NODE = 287.5939
ARG_OF_PERICENTER = 270.0038
MEAN_ANOMALY   = 31.3131

EPHEMERIS_TYPE = 0
CLASSIFICATION_TYPE = U
NORAD_CAT_ID   = 67003
ELEMENT_SET_NO = 999
REV_AT_EPOCH   = 218
BSTAR          = -.10866706E-1
MEAN_MOTION_DOT = -.1592306E-1
MEAN_MOTION_DDOT = 0

CCSDS_OMM_VERS = 2.0
CREATION_DATE  = 
ORIGINATOR     = 

OBJECT_NAME    = STARLINK-35913
OBJECT_ID      = 2025-293B
CENTER_NAME    = EARTH
REF_FRAME      = TEME
TIME_SYSTEM    = UTC
MEAN_ELEMENT_THEORY = SGP/SGP4

EPOCH          = 2025-12-25T06:00:04.000320
MEAN_MOTION    = 15.77651182
ECCENTRICITY   = .00036577
INCLINATION    = 69.9934
RA_OF_ASC_NODE = 287.5913
ARG_OF_PERICENTER = 271.0537
MEAN_ANOMALY   = 32.4403

EPHEMERIS_TYPE = 0
CLASSIFICATION_TYPE = U
NORAD_CAT_ID   = 67004
ELEMENT_SET_NO = 999
REV_AT_EPOCH   = 218
BSTAR          = -.10904118E-1
MEAN_MOTION_DOT = -.1596588E-1
MEAN_MOTION_DDOT = 0

CCSDS_OMM_VERS = 2.0
CREATION_DATE  = 
ORIGINATOR     = 

OBJECT_NAME    = STARLINK-36148
OBJECT_ID      = 2025-293C
CENTER_NAME    = EARTH
REF_FRAME      = TEME
TIME_SYSTEM    = UTC
MEAN_ELEMENT_THEORY = SGP/SGP4

EPOCH          = 2025-12-25T06:00:04.000320
MEAN_MOTION    = 15.77637515
ECCENTRICITY   = .00037002
INCLINATION    = 69.9937
RA_OF_ASC_NODE = 287.5892
ARG_OF_PERICENTER = 269.6792
MEAN_ANOMALY   = 36.0783

EPHEMERIS_TYPE = 0
CLASSIFICATION_TYPE = U
NORAD_CAT_ID   = 67005
ELEMENT_SET_NO = 999
REV_AT_EPOCH   = 218
BSTAR          = -.1088741E-1
MEAN_MOTION_DOT = -.1593642E-1
MEAN_MOTION_DDOT = 0

CCSDS_OMM_VERS = 2.0
CREATION_DATE  = 
ORIGINATOR     = 

OBJECT_NAME    = STARLINK-36156
OBJECT_ID      = 2025-293D
CENTER_NAME    = EARTH
REF_FRAME      = TEME
TIME_SYSTEM    = UTC
MEAN_ELEMENT_THEORY = SGP/SGP4

EPOCH          = 2025-12-25T06:00:04.000320
MEAN_MOTION    = 15.77585188
ECCENTRICITY   = .00038433
INCLINATION    = 69.9937
RA_OF_ASC_NODE = 287.5824
ARG_OF_PERICENTER = 272.3592
MEAN_ANOMALY   = 38.4996

EPHEMERIS_TYPE = 0
CLASSIFICATION_TYPE = U
NORAD_CAT_ID   = 67006
ELEMENT_SET_NO = 999
REV_AT_EPOCH   = 218
BSTAR          = -.10907849E-1
MEAN_MOTION_DOT = -.159312E-1
MEAN_MOTION_DDOT = 0

CCSDS_OMM_VERS = 2.0
CREATION_DATE  = 
ORIGINATOR     = 

OBJECT_NAME    = STARLINK-36123
OBJECT_ID      = 2025-293E
CENTER_NAME    = EARTH
REF_FRAME      = TEME
TIME_SYSTEM    = UTC
MEAN_ELEMENT_THEORY = SGP/SGP4

EPOCH          = 2025-12-25T06:00:04.000320
MEAN_MOTION    = 15.77607519
ECCENTRICITY   = .00038232
INCLINATION    = 69.9936
RA_OF_ASC_NODE = 287.5852
ARG_OF_PERICENTER = 270.6835
MEAN_ANOMALY   = 37.7977

EPHEMERIS_TYPE = 0
CLASSIFICATION_TYPE = U
NORAD_CAT_ID   = 67007
ELEMENT_SET_NO = 999
REV_AT_EPOCH   = 218
BSTAR          = -.10913911E-1
MEAN_MOTION_DOT = -.1595268E-1
MEAN_MOTION_DDOT = 0

CCSDS_OMM_VERS = 2.0
CREATION_DATE  = 
ORIGINATOR     = 

OBJECT_NAME    = STARLINK-36163
OBJECT_ID      = 2025-293F
CENTER_NAME    = EARTH
REF_FRAME      = TEME
TIME_SYSTEM    = UTC
MEAN_ELEMENT_THEORY = SGP/SGP4

EPOCH          = 2025-12-25T06:00:04.000320
MEAN_MOTION    = 15.77547975
ECCENTRICITY   = .0003669
INCLINATION    = 69.9935
RA_OF_ASC_NODE = 287.5792
ARG_OF_PERICENTER = 274.7387
MEAN_ANOMALY   = 39.0171

EPHEMERIS_TYPE = 0
CLASSIFICATION_TYPE = U
NORAD_CAT_ID   = 67008
ELEMENT_SET_NO = 999
REV_AT_EPOCH   = 218
BSTAR          = -.1094685E-1
MEAN_MOTION_DOT = -.159558E-1
MEAN_MOTION_DDOT = 0

CCSDS_OMM_VERS = 2.0
CREATION_DATE  = 
ORIGINATOR     = 

OBJECT_NAME    = STARLINK-36118
OBJECT_ID      = 2025-293G
CENTER_NAME    = EARTH
REF_FRAME      = TEME
TIME_SYSTEM    = UTC
MEAN_ELEMENT_THEORY = SGP/SGP4

EPOCH          = 2025-12-25T06:00:04.000320
MEAN_MOTION    = 15.77526998
ECCENTRICITY   = .00036087
INCLINATION    = 69.9935
RA_OF_ASC_NODE = 287.5761
ARG_OF_PERICENTER = 272.7484
MEAN_ANOMALY   = 43.5049

EPHEMERIS_TYPE = 0
CLASSIFICATION_TYPE = U
NORAD_CAT_ID   = 67009
ELEMENT_SET_NO = 999
REV_AT_EPOCH   = 212
BSTAR          = -.10957756E-1
MEAN_MOTION_DOT = -.1595594E-1
MEAN_MOTION_DDOT = 0

CCSDS_OMM_VERS = 2.0
CREATION_DATE  = 
ORIGINATOR     = 

OBJECT_NAME    = STARLINK-36189
OBJECT_ID      = 2025-293H
CENTER_NAME    = EARTH
REF_FRAME      = TEME
TIME_SYSTEM    = UTC
MEAN_ELEMENT_THEORY = SGP/SGP4

EPOCH          = 2025-12-25T06:00:04.000320
MEAN_MOTION    = 15.77493402
ECCENTRICITY   = .00035459
INCLINATION    = 69.9933
RA_OF_ASC_NODE = 287.5704
ARG_OF_PERICENTER = 271.1433
MEAN_ANOMALY   = 49.7178

EPHEMERIS_TYPE = 0
CLASSIFICATION_TYPE = U
NORAD_CAT_ID   = 67010
ELEMENT_SET_NO = 999
REV_AT_EPOCH   = 218
BSTAR          = -.10962186E-1
MEAN_MOTION_DOT = -.1593995E-1
MEAN_MOTION_DDOT = 0

CCSDS_OMM_VERS = 2.0
CREATION_DATE  = 
ORIGINATOR     = 

OBJECT_NAME    = STARLINK-36167
OBJECT_ID      = 2025-293J
CENTER_NAME    = EARTH
REF_FRAME      = TEME
TIME_SYSTEM    = UTC
MEAN_ELEMENT_THEORY = SGP/SGP4

EPOCH          = 2025-12-25T06:00:04.000320
MEAN_MOTION    = 15.77517220
ECCENTRICITY   = .00035254
INCLINATION    = 69.9931
RA_OF_ASC_NODE = 287.5728
ARG_OF_PERICENTER = 271.7698
MEAN_ANOMALY   = 46.5621

EPHEMERIS_TYPE = 0
CLASSIFICATION_TYPE = U
NORAD_CAT_ID   = 67011
ELEMENT_SET_NO = 999
REV_AT_EPOCH   = 212
BSTAR          = -.10930418E-1
MEAN_MOTION_DOT = -.1591432E-1
MEAN_MOTION_DDOT = 0

CCSDS_OMM_VERS = 2.0
CREATION_DATE  = 
ORIGINATOR     = 

OBJECT_NAME    = STARLINK-36175
OBJECT_ID      = 2025-293K
CENTER_NAME    = EARTH
REF_FRAME      = TEME
TIME_SYSTEM    = UTC
MEAN_ELEMENT_THEORY = SGP/SGP4

EPOCH          = 2025-12-25T06:00:04.000320
MEAN_MOTION    = 15.77482479
ECCENTRICITY   = .00036067
INCLINATION    = 69.9929
RA_OF_ASC_NODE = 287.5675
ARG_OF_PERICENTER = 272.7212
MEAN_ANOMALY   = 50.3183

EPHEMERIS_TYPE = 0
CLASSIFICATION_TYPE = U
NORAD_CAT_ID   = 67012
ELEMENT_SET_NO = 999
REV_AT_EPOCH   = 212
BSTAR          = -.10958126E-1
MEAN_MOTION_DOT = -.1592859E-1
MEAN_MOTION_DDOT = 0

