2025-292J               
1 67001U 25292J   25359.24551847  .00005768  00000+0  41603-3 0  9996
2 67001  97.6531  71.6766 0015019 223.3598 136.6447 15.04433141  2276
ZK-1A R/B               
1 67002U 25292K   25358.80953842  .00163758  93789-5  75988-3 0  9998
2 67002  97.7203  72.5850 0206196 321.3647  37.3004 15.58439592  2271
STARLINK-35660          
1 67003U 25293A   25359.25004630 -.01592306  00000+0 -10867-1 0  9991
2 67003  69.9935 287.5939 0003642 270.0038  31.3131 15.77659339  2185
STARLINK-35913          
1 67004U 25293B   25359.25004630 -.01596588  00000+0 -10904-1 0  9990
2 67004  69.9934 287.5913 0003657 271.0537  32.4403 15.77651182  2180
STARLINK-36148          
1 67005U 25293C   25359.25004630 -.01593642  00000+0 -10887-1 0  9999
2 67005  69.9937 287.5892 0003700 269.6792  36.0783 15.77637515  2180
STARLINK-36156          
1 67006U 25293D   25359.25004630 -.01593120  00000+0 -10908-1 0  9995
2 67006  69.9937 287.5824 0003843 272.3592  38.4996 15.77585188  2183
STARLINK-36123          
1 67007U 25293E   25359.25004630 -.01595268  00000+0 -10914-1 0  9998
2 67007  69.9936 287.5852 0003823 270.6835  37.7977 15.77607519  2187
STARLINK-36163          
1 67008U 25293F   25359.25004630 -.01595580  00000+0 -10947-1 0  9992
2 67008  69.9935 287.5792 0003669 274.7387  39.0171 15.77547975  2185
STARLINK-36118          
1 67009U 25293G   25359.25004630 -.01595594  00000+0 -10958-1 0  9990
2 67009  69.9935 287.5761 0003608 272.7484  43.5049 15.77526998  2121
STARLINK-36189          
1 67010U 25293H   25359.25004630 -.01593995  00000+0 -10962-1 0  9990
2 67010  69.9933 287.5704 0003545 271.1433  49.7178 15.77493402  2185
STARLINK-36167          
1 67011U 25293J   25359.25004630 -.01591432  00000+0 -10930-1 0  9990
2 67011  69.9931 287.5728 0003525 271.7698  46.5621 15.77517220  2124
STARLINK-36175          
1 67012U 25293K   25359.25004630 -.01592859  00000+0 -10958-1 0  9995
2 67012  69.9929 287.5675 0003606 272.7212  50.3183 15.77482479  2129
